IRIDIUM 163             
1 43575U 18061G   26196.53859373  .00000035  00000+0  54979-5 0  9993
2 43575  86.3936  44.8621 0002112  85.9654 274.1784 14.34217269417441
IRIDIUM 156             
1 43576U 18061H   26196.51322315  .00000052  00000+0  11339-4 0  9994
2 43576  86.3936  44.8799 0002100  92.6168 267.5269 14.34217656417433
IRIDIUM 164             
1 43577U 18061J   26196.49419648  .00000141  00000+0  43143-4 0  9995
2 43577  86.3938  44.9289 0002326  89.1832 270.9630 14.34218368417475
IRIDIUM 159             
1 43578U 18061K   26196.53225076  .00000048  00000+0  99842-5 0  9995
2 43578  86.3935  44.8492 0002135  85.4483 274.6956 14.34217468417446
IRIDIUM 180             
1 43922U 19002A   26196.81082101  .00000108  00000+0  31420-4 0  9999
2 43922  86.3993 341.6318 0002216  90.8839 269.2610 14.34218511393094
IRIDIUM 176             
1 43923U 19002B   26196.84147372  .00000379  00000+0  56155-4 0  9997
2 43923  86.6112 341.5584 0002334  90.2799 269.8686 14.72249517403469
IRIDIUM 168             
1 43924U 19002C   26196.80447878 -.00000024  00000+0 -15735-4 0  9996
2 43924  86.3990 341.7126 0002110  91.4594 268.6843 14.34216581393073
IRIDIUM 173             
1 43925U 19002D   26196.79179403 -.00000074  00000+0 -33660-4 0  9993
2 43925  86.3978 341.6045 0002040  92.6876 267.4554 14.34216311393052
IRIDIUM 169             
1 43926U 19002E   26196.56139836  .00000038  00000+0  60331-5 0  9999
2 43926  86.4222  13.3267 0001895 103.6371 256.5038 14.38613271394300
IRIDIUM 172             
1 43927U 19002F   26196.78545172  .00000021  00000+0  43686-6 0  9995
2 43927  86.3989 341.6159 0002179  90.4368 269.7078 14.34217487393069
IRIDIUM 175             
1 43928U 19002G   26196.27891274  .00000177  00000+0  46219-4 0  9992
2 43928  86.4512 278.7791 0005308 115.1246 245.0506 14.43627276403035
IRIDIUM 171             
1 43929U 19002H   26196.83619178  .00000040  00000+0  72989-5 0  9999
2 43929  86.3999 341.9040 0002236  95.0637 265.0814 14.34217694393065
IRIDIUM 170             
1 43930U 19002J   26196.77967546  .00000393  00000+0  58470-4 0  9998
2 43930  86.6111 341.5864 0002256  86.7439 273.4037 14.72250138403463
IRIDIUM 167             
1 43931U 19002K   26196.82984903  .00000032  00000+0  41934-5 0  9999
2 43931  86.3992 341.6202 0002307  98.5365 261.6092 14.34217718393060
IRIDIUM 181             
1 56726U 23068S   26196.53149983  .00000172  00000+0  45155-4 0  9994
2 56726  86.4474  44.9372 0002412  83.4871 276.6605 14.43312397166529
IRIDIUM 177             
1 56727U 23068T   26196.78552234  .00000567  00000+0  71505-4 0  9995
2 56727  86.1986 315.2138 0002177  95.5504 264.5966 14.80024403170591
IRIDIUM 174             
1 56728U 23068U   26196.83519642  .00000389  00000+0  57751-4 0  9997
2 56728  86.6120 341.7134 0001983  88.2727 271.8717 14.72258711170235
IRIDIUM 178             
1 56729U 23068V   26196.77452028  .00000187  00000+0  21244-4 0  9999
2 56729  86.6535  13.4112 0002310  90.8278 269.3208 14.80026501170595
IRIDIUM 179             
1 56730U 23068W   26196.02544386  .00000137  00000+0  14651-4 0  9997
2 56730  86.6767  22.7863 0002321  93.3552 266.7935 14.80033495170481
