OBJECT_NAME,OBJECT_ID,EPOCH,MEAN_MOTION,ECCENTRICITY,INCLINATION,RA_OF_ASC_NODE,ARG_OF_PERICENTER,MEAN_ANOMALY,EPHEMERIS_TYPE,CLASSIFICATION_TYPE,NORAD_CAT_ID,ELEMENT_SET_NO,REV_AT_EPOCH,BSTAR,MEAN_MOTION_DOT,MEAN_MOTION_DDOT
IRIDIUM 163,2018-061G,2026-07-15T12:55:34.498272,14.34217269,.00021124,86.3936,44.8621,85.9654,274.1784,0,U,43575,999,41744,.549794E-5,.35E-6,0
IRIDIUM 156,2018-061H,2026-07-15T12:19:02.480160,14.34217656,.00021001,86.3936,44.8799,92.6168,267.5269,0,U,43576,999,41743,.11339256E-4,.52E-6,0
IRIDIUM 164,2018-061J,2026-07-15T11:51:38.575872,14.34218368,.00023266,86.3938,44.9289,89.1832,270.9630,0,U,43577,999,41747,.43143416E-4,.141E-5,0
IRIDIUM 159,2018-061K,2026-07-15T12:46:26.465664,14.34217468,.00021353,86.3935,44.8492,85.4483,274.6956,0,U,43578,999,41744,.9984229E-5,.48E-6,0
IRIDIUM 180,2019-002A,2026-07-15T19:27:34.935264,14.34218511,.0002216,86.3993,341.6318,90.8839,269.2610,0,U,43922,999,39309,.3142E-4,.108E-5,0
IRIDIUM 176,2019-002B,2026-07-15T20:11:43.329408,14.72249517,.0002334,86.6112,341.5584,90.2799,269.8686,0,U,43923,999,40346,.56155E-4,.379E-5,0
IRIDIUM 168,2019-002C,2026-07-15T19:18:26.966592,14.34216581,.000211,86.3990,341.7126,91.4594,268.6843,0,U,43924,999,39307,-.15735E-4,-.24E-6,0
IRIDIUM 173,2019-002D,2026-07-15T19:00:11.004192,14.34216311,.000204,86.3978,341.6045,92.6876,267.4554,0,U,43925,999,39305,-.3366E-4,-.74E-6,0
IRIDIUM 169,2019-002E,2026-07-15T13:28:24.818304,14.38613271,.0001895,86.4222,13.3267,103.6371,256.5038,0,U,43926,999,39430,.60331E-5,.38E-6,0
IRIDIUM 172,2019-002F,2026-07-15T18:51:03.028608,14.34217487,.0002179,86.3989,341.6159,90.4368,269.7078,0,U,43927,999,39306,.43686E-6,.21E-6,0
IRIDIUM 175,2019-002G,2026-07-15T06:41:38.060736,14.43627276,.00053087,86.4512,278.7791,115.1246,245.0506,0,U,43928,999,40303,.46218794E-4,.177E-5,0
IRIDIUM 171,2019-002H,2026-07-15T20:04:06.969792,14.34217694,.0002236,86.3999,341.9040,95.0637,265.0814,0,U,43929,999,39306,.72989E-5,.4E-6,0
IRIDIUM 170,2019-002J,2026-07-15T18:42:43.959744,14.72250138,.0002256,86.6111,341.5864,86.7439,273.4037,0,U,43930,999,40346,.5847E-4,.393E-5,0
IRIDIUM 167,2019-002K,2026-07-15T19:54:58.956192,14.34217718,.0002307,86.3992,341.6202,98.5365,261.6092,0,U,43931,999,39306,.41934E-5,.32E-6,0
IRIDIUM 181,2023-068S,2026-07-15T12:45:21.585312,14.43312397,.00024121,86.4474,44.9372,83.4871,276.6605,0,U,56726,999,16652,.45155381E-4,.172E-5,0
IRIDIUM 177,2023-068T,2026-07-15T18:51:09.130176,14.80024403,.0002177,86.1986,315.2138,95.5504,264.5966,0,U,56727,999,17059,.71505E-4,.567E-5,0
IRIDIUM 174,2023-068U,2026-07-15T20:02:40.970688,14.72258711,.0001983,86.6120,341.7134,88.2727,271.8717,0,U,56728,999,17023,.57751E-4,.389E-5,0
IRIDIUM 178,2023-068V,2026-07-15T18:35:18.552192,14.80026501,.000231,86.6535,13.4112,90.8278,269.3208,0,U,56729,999,17059,.21244E-4,.187E-5,0
IRIDIUM 179,2023-068W,2026-07-15T00:36:38.349504,14.80033495,.00023212,86.6767,22.7863,93.3552,266.7935,0,U,56730,999,17048,.14650918E-4,.137E-5,0
